NOAA 15                 
1 25338U 98030A   22205.53392329  .00000145  00000+0  78855-4 0  9994
2 25338  98.6421 234.5811 0010321 183.1007 177.0110 14.26154008258300
DMSP 5D-3 F15 (USA 147) 
1 25991U 99067A   22205.56680507  .00000102  00000+0  74449-4 0  9999
2 25991  99.0536 197.7790 0011227  84.0101  24.3842 14.16555642169027
METEOSAT-8 (MSG-1)      
1 27509U 02040B   22205.20327049  .00000131  00000+0  00000+0 0  9990
2 27509   8.1034  50.4605 0000179 174.6743 191.2967  1.00274224 72983
DMSP 5D-3 F16 (USA 172) 
1 28054U 03048A   22205.55074574 -.00000006  00000+0  20770-4 0  9998
2 28054  98.9893 196.5544 0006724 205.1659 264.5517 14.13677006968275
NOAA 18                 
1 28654U 05018A   22205.53007761  .00000114  00000+0  85800-4 0  9999
2 28654  98.9477 275.9345 0013596 223.3147 136.6956 14.12756831885210
METEOSAT-9 (MSG-2)      
1 28912U 05049B   22205.24493649  .00000125  00000+0  00000+0 0  9998
2 28912   6.0999  66.0761 0000664 317.8559  51.8806  1.00268112 60765
EWS-G1 (GOES 13)        
1 29155U 06018A   22205.46923733  .00000041  00000+0  00000+0 0  9998
2 29155   0.6896  96.7812 0004666  93.0156 342.4729  1.00274348 29104
DMSP 5D-3 F17 (USA 191) 
1 29522U 06050A   22205.57803812  .00000009  00000+0  27309-4 0  9999
2 29522  98.7660 219.9364 0010385 149.9993 210.1776 14.14104013811152
FENGYUN 3A              
1 32958U 08026A   22205.49374148  .00000063  00000+0  50433-4 0  9991
2 32958  98.5044 166.6164 0007564 277.9589  82.0729 14.18729675733470
FENGYUN 2E              
1 33463U 08066A   22205.54611269 -.00000208  00000+0  00000+0 0  9993
2 33463   5.9857  65.1035 0002966  16.6267 143.8569  1.00273464 49811
NOAA 19                 
1 33591U 09005A   22205.53560250  .00000133  00000+0  96601-4 0  9994
2 33591  99.1457 240.4472 0014956  84.8191 275.4686 14.12591479693422
GOES 14                 
1 35491U 09033A   22205.29272865 -.00000089  00000+0  00000+0 0  9995
2 35491   0.4035  95.0243 0013848 116.5841  91.1507  1.00273183 47839
METEOR-M 1              
1 35865U 09049A   22205.53897713  .00000054  00000+0  43198-4 0  9990
2 35865  98.5300 174.8172 0003381 107.9017 252.2530 14.22346343666812
DMSP 5D-3 F18 (USA 210) 
1 35951U 09057A   22205.56669462  .00000180  00000+0  11866-3 0  9992
2 35951  98.7237 184.0417 0010865 347.9586  12.1326 14.13530068658373
GOES 15                 
1 36411U 10008A   22205.57966709  .00000056  00000+0  00000+0 0  9993
2 36411   0.3759 100.5152 0002270  42.7581 239.4470  1.00278702 45390
COMS 1                  
1 36744U 10032A   22205.55439671 -.00000343  00000+0  00000+0 0  9990
2 36744   1.1669  92.4009 0000729  48.1455 129.4133  1.00272885 36812
FENGYUN 3B              
1 37214U 10059A   22205.28187477 -.00000017  00000+0  15581-4 0  9999
2 37214  99.0921 211.9088 0021262 250.7296 109.1585 14.14260276606163
SUOMI NPP               
1 37849U 11061A   22205.57892822  .00000016  00000+0  28461-4 0  9995
2 37849  98.7330 143.6181 0001162  90.1783  82.6820 14.19535082556465
FENGYUN 2F              
1 38049U 12002A   22205.55108310 -.00000357  00000+0  00000+0 0  9997
2 38049   3.8800  79.4298 0002219  10.2828 162.5511  1.00259249 38610
METEOSAT-10 (MSG-3)     
1 38552U 12035B   22205.24377122  .00000062  00000+0  00000+0 0  9999
2 38552   1.5752  43.2835 0000698  22.2815 333.6848  1.00264150 36578
METOP-B                 
1 38771U 12049A   22205.59658522  .00000050  00000+0  42749-4 0  9999
2 38771  98.6937 264.7959 0000718  59.4828  84.3919 14.21497644511018
FENGYUN 3C              
1 39260U 13052A   22205.36932714  .00000053  00000+0  47524-4 0  9990
2 39260  98.4523 231.6114 0011344 162.6255 197.5314 14.15933121457142
METEOR-M 2              
1 40069U 14037A   22205.29756177  .00000001  00000+0  19779-4 0  9996
2 40069  98.4306 221.4196 0004955 205.5589 154.5350 14.20713833417099
HIMAWARI-8              
1 40267U 14060A   22205.53868918 -.00000274  00000+0  00000+0 0  9991
2 40267   0.0163 128.0555 0000671  35.0960 113.6595  1.00271014 28482
FENGYUN 2G              
1 40367U 14090A   22205.47696279 -.00000303  00000+0  00000+0 0  9990
2 40367   2.0264  89.1529 0000851 272.9326 211.4661  1.00277616 27724
METEOSAT-11 (MSG-4)     
1 40732U 15034A   22205.24185281 -.00000001  00000+0  00000+0 0  9991
2 40732   0.3608  64.4026 0001615  24.7924 300.0531  1.00263546 25745
ELEKTRO-L 2             
1 41105U 15074A   22205.45327330 -.00000116  00000+0  00000+0 0  9993
2 41105   3.0796  87.7364 0002203  80.4944 282.5536  1.00273652 24248
HIMAWARI-9              
1 41836U 16064A   22205.53868918 -.00000272  00000+0  00000+0 0  9998
2 41836   0.0374 284.6585 0000535 218.9456 133.2953  1.00274304 20913
GOES 16                 
1 41866U 16071A   22205.44211800 -.00000245  00000+0  00000+0 0  9991
2 41866   0.0664 240.5524 0000630 311.8551 193.6792  1.00271233 20837
FENGYUN 4A              
1 41882U 16077A   22205.56854947 -.00000328  00000+0  00000+0 0  9995
2 41882   0.0688  72.8334 0002591  49.2178 129.3396  1.00279226 20703
CYGFM05                 
1 41884U 16078A   22205.37648699  .00002319  00000+0  11774-3 0  9997
2 41884  34.9570 331.8478 0014404  59.4766 300.7366 15.16505075310395
CYGFM04                 
1 41885U 16078B   22205.54716457  .00002327  00000+0  11640-3 0  9996
2 41885  34.9499 319.8097 0012751  79.1483 281.0663 15.17039838310466
CYGFM02                 
1 41886U 16078C   22205.60280272  .00002151  00000+0  10759-3 0  9990
2 41886  34.9593 321.6824 0013452  73.4119 286.8070 15.17078952310558
CYGFM01                 
1 41887U 16078D   22205.51481739  .00002230  00000+0  11387-3 0  9998
2 41887  34.9538 333.4372 0014847  60.1880 300.0307 15.16312184310362
CYGFM08                 
1 41888U 16078E   22205.35635048  .00002301  00000+0  11592-3 0  9992
2 41888  34.9507 326.9031 0013951  71.1347 289.0876 15.16782629310477
CYGFM06                 
1 41889U 16078F   22205.45113784  .00002404  00000+0  12002-3 0  9993
2 41889  34.9589 321.3025 0012420  71.8406 288.3658 15.17093830310473
CYGFM07                 
1 41890U 16078G   22205.50294764  .00002531  00000+0  12649-3 0  9997
2 41890  34.9524 319.8227 0012252  77.0234 283.1846 15.17026171310465
CYGFM03                 
1 41891U 16078H   22205.43594611  .00002587  00000+0  12929-3 0  9996
2 41891  34.9558 320.7244 0011774  74.0756 286.1253 15.17019124310440
FENGYUN 3D              
1 43010U 17072A   22205.36541741  .00000075  00000+0  56967-4 0  9995
2 43010  98.8173 149.7850 0002471 130.5013 229.6380 14.19215079243005
NOAA 20                 
1 43013U 17073A   22205.50956820  .00000026  00000+0  33058-4 0  9995
2 43013  98.7169 143.4867 0000992  63.6629 296.4649 14.19562945242484
GOES 17                 
1 43226U 18022A   22205.53243684  .00000101  00000+0  00000+0 0  9996
2 43226   0.0865 256.6361 0000198 283.3547 176.6070  1.00272278 16145
FENGYUN 2H              
1 43491U 18050A   22205.54463028 -.00000128  00000+0  00000+0 0  9998
2 43491   1.2402  96.4803 0004154  42.5208  78.6636  1.00271024 15163
METOP-C                 
1 43689U 18087A   22205.53505161  .00000050  00000+0  42888-4 0  9999
2 43689  98.6819 264.9108 0001606 306.5612  53.5418 14.21497697192579
GEO-KOMPSAT-2A          
1 43823U 18100A   22205.55430951 -.00000342  00000+0  00000+0 0  9991
2 43823   0.0133 107.7053 0002079 356.3843 165.9570  1.00272802 13348
METEOR-M2 2             
1 44387U 19038A   22205.32927444  .00000018  00000+0  27441-4 0  9993
2 44387  98.7251 165.8165 0001783 132.2040 227.9295 14.23715468158655
FENGYUN 3E              
1 49008U 21062A   22205.30093589 -.00000010  00000+0  15670-4 0  9994
2 49008  98.7115 206.6777 0000883 215.1112 145.0009 14.19734915 54542
GOES 18                 
1 51850U 22021A   22205.53243684  .00000099  00000+0  00000+0 0  9998
2 51850   0.0522 104.2173 0002721 110.4023 142.3042  1.00271667  1503
